[
  "TORO                    \r\n1 60530U 24149BQ  26188.09897968  .00002029  00000+0  18360-3 0  9998\r\n2 60530  97.6783 262.3952 0001589  94.1789 265.9614 14.96503295102938\r\n",
  "TORO3                   \r\n1 68481U 26067BT  26187.41238523  .00000647  00000+0  69120-4 0  9998\r\n2 68481  97.7682 145.4996 0001384 231.2361 128.8734 14.92158011 14594\r\n",
  "SATORO-T3               \r\n1 64589U 25135BP  26188.18341985  .00001550  00000+0  14926-3 0  9997\r\n2 64589  97.7725 302.5084 0003510 260.9051  99.1772 14.94408614 56899\r\n",
  "GEMINI-POLLUX           \r\n1 69000U 26100W   26187.64069416  .00001758  00000+0  17755-3 0  9992\r\n2 69000  97.7297  84.7527 0001734 118.0905 242.0489 14.92300816  9608\r\n",
  "FORMOSAT-2 (ROCSAT 2)   \r\n1 28254U 04018A   26187.88509705 -.00000228  00000+0 -12316-3 0  9999\r\n2 28254  98.8457 154.7631 0000551 270.6566 143.9425 14.01255445131514\r\n",
  "FORMOSAT-3 FM6          \r\n1 29047U 06011A   26187.67021390  .00000366  00000+0  15174-3 0  9997\r\n2 29047  71.9775 271.4114 0049061 206.0017 153.8656 14.31414050 57195\r\n",
  "FORMOSAT-3 FM1          \r\n1 29048U 06011B   26187.38461550  .00000330  00000+0  13864-3 0  9997\r\n2 29048  71.9642 180.3929 0041790 169.7914 190.4083 14.31403233 59524\r\n",
  "FORMOSAT-3 FM5          \r\n1 29049U 06011C   26187.92383976  .00000372  00000+0  15493-3 0  9999\r\n2 29049  72.0190   3.5281 0033683 175.2795 184.8668 14.31419675 55498\r\n",
  "FORMOSAT-3 FM3          \r\n1 29050U 06011D   26187.68754124  .00001133  00000+0  20828-3 0  9995\r\n2 29050  72.0134 270.0595 0044954 250.4555 109.1744 14.67002988 79237\r\n",
  "FORMOSAT-3 FM4          \r\n1 29051U 06011E   26188.16173036  .00000230  00000+0  99647-4 0  9990\r\n2 29051  72.0035 260.5489 0064477  54.9406 305.7756 14.31554276 58123\r\n",
  "FORMOSAT-3 FM2          \r\n1 29052U 06011F   26187.88006304  .00000395  00000+0  16244-3 0  9995\r\n2 29052  72.0335 342.0027 0037618 127.6003 232.8561 14.31633994 55608\r\n",
  "PACE                    \r\n1 40022U 14033N   26187.93118991  .00003300  00000+0  20175-3 0  9997\r\n2 40022  98.1244 194.0164 0007408 140.2329 219.9443 15.11019777656012\r\n",
  "FORMOSAT-5              \r\n1 42920U 17049A   26188.19013351  .00000124  00000+0  42425-4 0  9993\r\n2 42920  98.2248 263.0551 0011872  27.8421 332.3407 14.50906255469577\r\n",
  "FORMOSAT 7-3            \r\n1 44343U 19036E   26187.94343676  .00003789  00000+0  20670-3 0  9997\r\n2 44343  23.9999  42.5518 0000831 126.1855 233.8725 15.09951949386230\r\n",
  "FORMOSAT 7-1            \r\n1 44349U 19036L   26187.31621181  .00002632  00000+0  19961-3 0  9991\r\n2 44349  23.9979 263.4271 0001076  59.0347 301.0260 14.96591424387524\r\n",
  "FORMOSAT 7-4            \r\n1 44350U 19036M   26187.47213352  .00002950  00000+0  22693-3 0  9996\r\n2 44350  23.9994 324.4824 0001496  62.6748 297.3905 14.96587863386968\r\n",
  "FORMOSAT 7-2            \r\n1 44351U 19036N   26186.89442351  .00003235  00000+0  25139-3 0  9990\r\n2 44351  23.9998  22.6902 0000890  55.3635 304.6950 14.96582619386391\r\n",
  "FORMOSAT 7-6            \r\n1 44353U 19036Q   26188.16082949  .00002004  00000+0  14583-3 0  9991\r\n2 44353  23.9964 194.9647 0000912 354.5742   5.4749 14.96592223384812\r\n",
  "FORMOSAT 7-5            \r\n1 44358U 19036V   26188.13816421  .00002309  00000+0  17207-3 0  9997\r\n2 44358  23.9969 133.8652 0000602  96.0147 264.0422 14.96569224385348\r\n",
  "FORMOSAT-7R (TRITON)    \r\n1 58017U 23155B   26188.16916104  .00001556  00000+0  16234-3 0  9995\r\n2 58017  97.8353 269.4230 0002023  61.4962 298.6459 14.91178507149201\r\n",
  "NIGHTJAR                \r\n1 60535U 24149BV  26188.15033324  .00002557  00000+0  21516-3 0  9991\r\n2 60535  97.6820 264.5767 0002008 110.8011 249.3427 14.99132693145864\r\n",
  "IRIS-F3                 \r\n1 62619U 25009L   26188.03992470  .00004587  00000+0  17439-3 0  9999\r\n2 62619  97.4039 268.7285 0004975 243.6408 116.4321 15.27281395 81851\r\n",
  "IRIS-F2                 \r\n1 62684U 25009CD  26187.72950887  .00011124  00000+0  41939-3 0  9999\r\n2 62684  97.3880 267.3117 0003975 275.1683  84.9103 15.27224995139448\r\n",
  "FORMOSAT-8A             \r\n1 66666U 25276A   26188.14183865  .00001532  00000+0  12552-3 0  9991\r\n2 66666  97.6544 262.0852 0004492 158.0957 202.0460 15.00734235 33051\r\n",
  "LILIUM-2                \r\n1 66679U 25276P   26188.14660375  .00002069  00000+0  10483-3 0  9998\r\n2 66679  97.4143 260.7906 0004520 305.7415  54.3398 15.18071075 33429\r\n",
  "BLACK KITE-1            \r\n1 66741U 25276CD  26188.18126580  .00005713  00000+0  26146-3 0  9999\r\n2 66741  97.4232 261.6111 0004011 278.8985  81.1796 15.20898338 30769\r\n",
  "T.MICROSAT-1            \r\n1 66766U 25276DE  26187.87951949  .00004766  00000+0  21779-3 0  9990\r\n2 66766  97.4150 261.3009 0002217 108.0046 252.1432 15.21038323 33431\r\n",
  "LILIUM-3                \r\n1 66770U 25276DJ  26187.65058941  .00002371  00000+0  11454-3 0  9990\r\n2 66770  97.4236 261.0878 0002445 145.1789 214.9606 15.19614739 33382\r\n",
  "T.MICROSAT-2            \r\n1 68433U 26067T   26187.44716602  .00004674  00000+0  23585-3 0  9995\r\n2 68433  97.4577 145.5278 0005880  15.5330 344.6083 15.17591325 14850\r\n",
  "PARUS-6U1               \r\n1 68456U 26067AS  26188.16662685  .00004525  00000+0  22750-3 0  9999\r\n2 68456  97.4560 146.2259 0005682  16.3364 343.8052 15.17737558 14969\r\n",
  "BLACK KITE-2            \r\n1 68474U 26067BL  26187.85655015  .00001668  00000+0  16724-3 0  9992\r\n2 68474  97.7555 145.8553 0002686 138.2250 221.9175 14.92675654 14666\r\n",
  "PEARL-1B                \r\n1 68980U 26100A   26187.71244148  .00002102  00000+0  21997-3 0  9990\r\n2 68980  97.7338  84.6853 0008912  84.1002 276.1232 14.90644303  9599\r\n",
  "PEARL-1A                \r\n1 68990U 26100L   26188.02992352  .00001053  00000+0  11190-3 0  9991\r\n2 68990  97.7286  85.0016 0006932  95.8467 264.3541 14.91042045  9657\r\n"
]